{
  "type": "FeatureCollection",
  "features": [
    {
      "type": "Feature",
      "properties": {
        "norad_id": 30172,
        "name": "FENGYUN 1C DEB",
        "group": "fengyun-1c-debris",
        "lat": -3.809682387444564,
        "lon": 148.4957342160172,
        "alt_km": 805.2804594413028,
        "timestamp": "2025-12-15T22:44:29.202344+00:00",
        "meta_object_name": "FENGYUN 1C DEB",
        "meta_object_id": "1999-025UD",
        "meta_epoch": "2025-12-14T22:11:59.542944",
        "meta_mean_motion": 14.12476872,
        "meta_eccentricity": 0.00686336,
        "meta_inclination": 99.2343,
        "meta_ra_of_asc_node": 328.0631,
        "meta_arg_of_pericenter": 195.8656,
        "meta_mean_anomaly": 191.1975,
        "meta_ephemeris_type": 0,
        "meta_classification_type": "U",
        "meta_norad_cat_id": 30172,
        "meta_element_set_no": 999,
        "meta_rev_at_epoch": 96548,
        "meta_bstar": 0.0010438007,
        "meta_mean_motion_dot": 1.924e-05,
        "meta_mean_motion_ddot": 0,
        "tle_line1": "1 30172U 99025UD  25348.92499471  .00001924  00000+0  10438-2 0  9998",
        "tle_line2": "2 30172  99.2343 328.0631 0068633 195.8656 191.1975 14.12476872965481"
      },
      "geometry": {
        "type": "Point",
        "coordinates": [
          148.4957342160172,
          -3.809682387444564
        ]
      }
    },
    {
      "type": "Feature",
      "properties": {
        "norad_id": 30173,
        "name": "FENGYUN 1C DEB",
        "group": "fengyun-1c-debris",
        "lat": 43.38238781031758,
        "lon": -110.6993396282217,
        "alt_km": 897.6984893354229,
        "timestamp": "2025-12-15T22:44:29.202355+00:00",
        "meta_object_name": "FENGYUN 1C DEB",
        "meta_object_id": "1999-025UE",
        "meta_epoch": "2025-12-15T03:30:59.336640",
        "meta_mean_motion": 14.11399434,
        "meta_eccentricity": 0.00806515,
        "meta_inclination": 98.9777,
        "meta_ra_of_asc_node": 59.9074,
        "meta_arg_of_pericenter": 281.7373,
        "meta_mean_anomaly": 106.8131,
        "meta_ephemeris_type": 0,
        "meta_classification_type": "U",
        "meta_norad_cat_id": 30173,
        "meta_element_set_no": 999,
        "meta_rev_at_epoch": 96583,
        "meta_bstar": 0.0013140043,
        "meta_mean_motion_dot": 2.407e-05,
        "meta_mean_motion_ddot": 0,
        "tle_line1": "1 30173U 99025UE  25349.14652010  .00002407  00000+0  13140-2 0  9994",
        "tle_line2": "2 30173  98.9777  59.9074 0080651 281.7373 106.8131 14.11399434965838"
      },
      "geometry": {
        "type": "Point",
        "coordinates": [
          -110.6993396282217,
          43.38238781031758
        ]
      }
    },
    {
      "type": "Feature",
      "properties": {
        "norad_id": 30174,
        "name": "FENGYUN 1C DEB",
        "group": "fengyun-1c-debris",
        "lat": -50.88767016043579,
        "lon": -51.87121511916033,
        "alt_km": 644.5948223897531,
        "timestamp": "2025-12-15T22:44:29.202366+00:00",
        "meta_object_name": "FENGYUN 1C DEB",
        "meta_object_id": "1999-025UF",
        "meta_epoch": "2025-12-15T08:59:14.760960",
        "meta_mean_motion": 14.81230087,
        "meta_eccentricity": 0.00183299,
        "meta_inclination": 98.7752,
        "meta_ra_of_asc_node": 138.4541,
        "meta_arg_of_pericenter": 37.0733,
        "meta_mean_anomaly": 20.501,
        "meta_ephemeris_type": 0,
        "meta_classification_type": "U",
        "meta_norad_cat_id": 30174,
        "meta_element_set_no": 999,
        "meta_rev_at_epoch": 98407,
        "meta_bstar": 0.0027047037,
        "meta_mean_motion_dot": 0.00021126,
        "meta_mean_motion_ddot": 0,
        "tle_line1": "1 30174U 99025UF  25349.37447640  .00021126  00000+0  27047-2 0  9991",
        "tle_line2": "2 30174  98.7752 138.4541 0018329  37.0733  20.5010 14.81230087984077"
      },
      "geometry": {
        "type": "Point",
        "coordinates": [
          -51.87121511916033,
          -50.88767016043579
        ]
      }
    },
    {
      "type": "Feature",
      "properties": {
        "norad_id": 30175,
        "name": "FENGYUN 1C DEB",
        "group": "fengyun-1c-debris",
        "lat": -79.97180521600124,
        "lon": 156.81267641376144,
        "alt_km": 906.4165768666189,
        "timestamp": "2025-12-15T22:44:29.202376+00:00",
        "meta_object_name": "FENGYUN 1C DEB",
        "meta_object_id": "1999-025UG",
        "meta_epoch": "2025-12-15T02:31:18.145632",
        "meta_mean_motion": 13.83869245,
        "meta_eccentricity": 0.01463887,
        "meta_inclination": 99.3809,
        "meta_ra_of_asc_node": 45.1709,
        "meta_arg_of_pericenter": 206.3728,
        "meta_mean_anomaly": 183.613,
        "meta_ephemeris_type": 0,
        "meta_classification_type": "U",
        "meta_norad_cat_id": 30175,
        "meta_element_set_no": 999,
        "meta_rev_at_epoch": 95373,
        "meta_bstar": 0.00040917082,
        "meta_mean_motion_dot": 4.48e-06,
        "meta_mean_motion_ddot": 0,
        "tle_line1": "1 30175U 99025UG  25349.10507113  .00000448  00000+0  40917-3 0  9991",
        "tle_line2": "2 30175  99.3809  45.1709 0146388 206.3728 183.6130 13.83869245953738"
      },
      "geometry": {
        "type": "Point",
        "coordinates": [
          156.81267641376144,
          -79.97180521600124
        ]
      }
    },
    {
      "type": "Feature",
      "properties": {
        "norad_id": 30177,
        "name": "FENGYUN 1C DEB",
        "group": "fengyun-1c-debris",
        "lat": -8.292243037427896,
        "lon": 111.9720984323978,
        "alt_km": 843.0787326806212,
        "timestamp": "2025-12-15T22:44:29.202386+00:00",
        "meta_object_name": "FENGYUN 1C DEB",
        "meta_object_id": "1999-025UJ",
        "meta_epoch": "2025-12-15T06:47:31.963776",
        "meta_mean_motion": 13.62818267,
        "meta_eccentricity": 0.04517443,
        "meta_inclination": 98.6268,
        "meta_ra_of_asc_node": 292.6489,
        "meta_arg_of_pericenter": 131.6739,
        "meta_mean_anomaly": 33.6315,
        "meta_ephemeris_type": 0,
        "meta_classification_type": "U",
        "meta_norad_cat_id": 30177,
        "meta_element_set_no": 999,
        "meta_rev_at_epoch": 93497,
        "meta_bstar": 0.00077305795,
        "meta_mean_motion_dot": 1.169e-05,
        "meta_mean_motion_ddot": 0,
        "tle_line1": "1 30177U 99025UJ  25349.28300884  .00001169  00000+0  77306-3 0  9991",
        "tle_line2": "2 30177  98.6268 292.6489 0451744 131.6739  33.6315 13.62818267934971"
      },
      "geometry": {
        "type": "Point",
        "coordinates": [
          111.9720984323978,
          -8.292243037427896
        ]
      }
    },
    {
      "type": "Feature",
      "properties": {
        "norad_id": 30178,
        "name": "FENGYUN 1C DEB",
        "group": "fengyun-1c-debris",
        "lat": 22.477761029339547,
        "lon": -140.99306293051515,
        "alt_km": 1058.1711588806293,
        "timestamp": "2025-12-15T22:44:29.202397+00:00",
        "meta_object_name": "FENGYUN 1C DEB",
        "meta_object_id": "1999-025UK",
        "meta_epoch": "2025-12-15T03:54:27.110592",
        "meta_mean_motion": 13.58692701,
        "meta_eccentricity": 0.02806362,
        "meta_inclination": 102.2605,
        "meta_ra_of_asc_node": 223.1901,
        "meta_arg_of_pericenter": 121.5682,
        "meta_mean_anomaly": 28.1246,
        "meta_ephemeris_type": 0,
        "meta_classification_type": "U",
        "meta_norad_cat_id": 30178,
        "meta_element_set_no": 999,
        "meta_rev_at_epoch": 93204,
        "meta_bstar": 0.0016869273,
        "meta_mean_motion_dot": 1.533e-05,
        "meta_mean_motion_ddot": 0,
        "tle_line1": "1 30178U 99025UK  25349.16281378  .00001533  00000+0  16869-2 0  9996",
        "tle_line2": "2 30178 102.2605 223.1901 0280636 121.5682  28.1246 13.58692701932048"
      },
      "geometry": {
        "type": "Point",
        "coordinates": [
          -140.99306293051515,
          22.477761029339547
        ]
      }
    },
    {
      "type": "Feature",
      "properties": {
        "norad_id": 30181,
        "name": "FENGYUN 1C DEB",
        "group": "fengyun-1c-debris",
        "lat": 81.12692471562956,
        "lon": -21.027789182083414,
        "alt_km": 791.7597000990745,
        "timestamp": "2025-12-15T22:44:29.202407+00:00",
        "meta_object_name": "FENGYUN 1C DEB",
        "meta_object_id": "1999-025UN",
        "meta_epoch": "2025-12-15T04:07:20.729280",
        "meta_mean_motion": 14.29265939,
        "meta_eccentricity": 0.00400193,
        "meta_inclination": 98.8437,
        "meta_ra_of_asc_node": 72.4148,
        "meta_arg_of_pericenter": 352.5511,
        "meta_mean_anomaly": 68.1721,
        "meta_ephemeris_type": 0,
        "meta_classification_type": "U",
        "meta_norad_cat_id": 30181,
        "meta_element_set_no": 999,
        "meta_rev_at_epoch": 97546,
        "meta_bstar": 0.001122132,
        "meta_mean_motion_dot": 2.833e-05,
        "meta_mean_motion_ddot": 0,
        "tle_line1": "1 30181U 99025UN  25349.17176770  .00002833  00000+0  11221-2 0  9991",
        "tle_line2": "2 30181  98.8437  72.4148 0040019 352.5511  68.1721 14.29265939975462"
      },
      "geometry": {
        "type": "Point",
        "coordinates": [
          -21.027789182083414,
          81.12692471562956
        ]
      }
    }
  ]
}